Baikonur,e,2.39924,171.00507,276.28432,2.9064836,0.19890801,0.0426424,292.02788,11/5/1990,1950.0,12.31,0.25
Baillauda,e,6.42603,293.30757,88.97450,3.4096670,0.15654389,0.0689061,339.63998,11/5/1990,1950.0,10.30,0.15
Baily,e,10.17278,258.46057,172.31809,2.5788161,0.23799812,0.1422476,347.98185,11/5/1990,1950.0,11.37,0.25
Baize,e,24.78498,90.08354,162.10123,2.3930114,0.26624834,0.1760680,234.80141,11/5/1990,1950.0,11.91,0.25
Baker,e,0.06332,195.66309,203.90333,3.1821900,0.17362606,0.1850357,164.64368,11/5/1990,1950.0,12.80,0.25
Bakhchisaraj,e,12.38157,191.12003,242.12022,2.6791318,0.22475686,0.1610814,146.97849,11/5/1990,1950.0,12.20,0.25
Balam,e,5.38193,295.25842,173.47061,2.2368416,0.29461253,0.1094305,247.02974,11/5/1990,1950.0,13.70,0.25
Balduinus,e,3.74718,313.90833,151.20813,3.2111038,0.17128627,0.1613460,118.63901,11/5/1990,1950.0,11.50,0.25
Bali,e,4.38722,44.26073,17.54808,2.2210043,0.29776933,0.1510102,81.39858,11/5/1990,1950.0,10.93,0.25
Bamberga,e,11.13552,327.83351,43.37249,2.6818117,0.22442004,0.3405289,279.44550,11/5/1990,1950.0,6.82,0.10
Bambery,e,26.12581,134.28005,267.70491,1.9309129,0.36733308,0.0922180,219.34334,11/5/1990,1950.0,12.90,0.25
Banachiewicza,e,9.73987,200.44385,103.51640,3.0211637,0.18769067,0.0957241,355.62361,11/5/1990,1950.0,10.67,0.25
Bancilhon,e,3.74698,60.75320,255.92927,2.2278169,0.29640452,0.1851804,293.19812,11/5/1990,1950.0,13.10,0.25
Bandusia,e,12.80683,36.20743,306.54169,2.6718176,0.22568041,0.1441576,17.44467,11/5/1990,1950.0,9.33,0.15
Baptistina,e,6.28597,7.77076,134.35881,2.2638602,0.28935412,0.0961218,10.39580,11/5/1990,1950.0,11.24,0.25
Barabashov,e,1.40825,48.10633,150.53323,2.2456219,0.29288633,0.0814269,35.93403,11/5/1990,1950.0,13.19,0.25
Barbara,e,15.36522,144.06975,191.19873,2.3854704,0.26751184,0.2441516,24.89907,11/5/1990,1950.0,8.97,0.04
Barbarossa,e,9.95070,132.44263,162.11261,2.5653340,0.23987678,0.2049626,122.48340,11/5/1990,1950.0,11.50,0.25
Barcelona,e,32.81179,317.81240,161.09056,2.6386158,0.22995340,0.1612378,113.01667,11/5/1990,1950.0,10.09,0.25
Bardwell,e,1.68272,152.78708,248.02803,3.1108942,0.17962890,0.1915581,221.62225,11/5/1990,1950.0,11.36,0.25
Barks,e,6.44077,4.53568,271.24095,2.7196494,0.21975294,0.1311766,79.29114,11/5/1990,1950.0,11.71,0.15
Barnardiana,e,4.89429,332.74793,305.71726,2.1985919,0.30233410,0.1410898,219.86268,11/5/1990,1950.0,12.09,0.25
Barringer,e,14.92388,178.31302,186.98383,3.1441651,0.17678526,0.2045217,170.76810,11/5/1990,1950.0,11.70,0.25
Barry,e,4.52316,111.83439,212.67527,2.2149903,0.29898288,0.1711858,105.46623,11/5/1990,1950.0,13.10,0.25
Barto,e,2.98124,139.54760,62.35055,2.4584856,0.25568343,0.1598500,292.93614,11/5/1990,1950.0,12.97,0.15
Bartok,e,23.29970,172.61670,254.46955,2.4068311,0.26395850,0.2887399,327.96753,11/5/1990,1950.0,12.00,0.25
Barucci,e,1.80625,315.10354,339.51693,2.4396170,0.25865542,0.1664750,340.12683,11/5/1990,1950.0,12.90,0.25
Bashkiria,e,2.25027,50.02004,8.96905,3.1867616,0.17325258,0.1404998,302.93661,11/5/1990,1950.0,11.93,0.15
Basilea,e,8.46526,321.28879,134.12013,2.2253953,0.29688846,0.1113263,162.48538,11/5/1990,1950.0,13.70,0.25
Basilevsky,e,3.87263,282.34263,355.62849,2.2501686,0.29199908,0.1746955,33.96685,11/5/1990,1950.0,13.30,0.25
Bata,e,9.55323,32.98001,103.05275,3.2205048,0.17053682,0.1100716,333.02363,11/5/1990,1950.0,11.70,0.25
Baten,f,1:51:27,-10:20,3.72,2000
Bateson,e,15.60001,26.92178,286.62292,3.0875181,0.18167276,0.1646797,206.83590,11/5/1990,1950.0,11.61,0.15
Bathilde,e,8.13935,253.32944,200.43020,2.8073317,0.20953833,0.0791548,178.76518,11/5/1990,1950.0,8.40,0.25
Bathseba,e,10.17834,167.91057,253.83722,3.0187006,0.18792044,0.1374892,133.51043,11/5/1990,1950.0,9.63,0.15
Batten,e,3.79141,327.84762,151.00726,2.3946132,0.26598124,0.0811995,324.60715,11/5/1990,1950.0,13.60,0.25
Baucis,e,10.02543,331.60111,359.41788,2.3807501,0.26830784,0.1137163,171.48006,11/5/1990,1950.0,8.80,0.25
Bauersfelda,e,3.23520,110.56763,19.55374,2.9075833,0.19879517,0.0969530,88.62511,11/5/1990,1950.0,11.60,0.25
Baumann,e,15.76407,102.22100,140.83105,3.1495296,0.17633379,0.1096770,258.04327,11/5/1990,1950.0,11.00,0.25
Baumeia,e,6.29456,51.51196,314.95712,2.2232075,0.29732681,0.0261821,255.85664,11/5/1990,1950.0,12.27,0.25
Bavaria,e,4.89442,142.05694,122.95538,2.7281252,0.21872964,0.0637992,219.45788,11/5/1990,1950.0,10.03,0.15
Beadell,e,14.90329,351.12408,255.92048,2.5725033,0.23887470,0.1726214,268.33452,11/5/1990,1950.0,12.29,0.15
Beagle,e,0.51443,183.81668,335.13035,3.1484056,0.17642822,0.1349394,232.53376,11/5/1990,1950.0,9.64,0.25
Beals,e,7.40933,359.00092,45.99871,2.2183145,0.29831109,0.0452595,105.49946,11/5/1990,1950.0,14.02,0.25
Beate,e,8.92003,159.03450,166.96481,3.0908841,0.18137607,0.0478163,266.02508,11/5/1990,1950.0,9.84,0.25
Beatrice Tinsle,e,19.81505,338.32112,79.35241,3.0741699,0.18285729,0.1183860,165.44532,11/5/1990,1950.0,12.90,0.25
Beatrix,e,4.96879,27.23243,166.44555,2.4316987,0.25991984,0.0822320,49.33879,11/5/1990,1950.0,8.89,0.30
Beatty,e,2.22058,216.72635,277.99839,2.3853907,0.26752525,0.1916830,37.55376,11/5/1990,1950.0,14.20,0.25
Bechuana,e,10.06091,306.78767,307.28260,3.0171416,0.18806611,0.1513520,288.40711,11/5/1990,1950.0,10.66,0.15
Beckman,e,20.17858,288.10988,84.76338,2.4083584,0.26370744,0.3929589,315.83169,11/5/1990,1950.0,12.70,0.25
Beer,e,2.22175,181.69910,179.98668,2.3693973,0.27023852,0.2211694,100.16196,11/5/1990,1950.0,13.70,0.25
Beet,e,3.19038,137.08380,352.26783,2.4423054,0.25822847,0.1204937,113.40272,11/5/1990,1950.0,13.40,0.25
Beethoven,e,2.71826,110.81547,353.08073,3.1743291,0.17427141,0.1735215,191.34228,11/5/1990,1950.0,11.36,0.15
Begonia,e,12.02300,113.70312,2.61435,3.1360461,0.17747223,0.1982883,184.04477,11/5/1990,1950.0,9.73,0.25
Behrens,e,5.07600,186.98630,338.40963,2.1793989,0.30633668,0.0662506,27.19451,11/5/1990,1950.0,12.30,0.25
Beira,e,26.71644,323.40960,83.66128,2.7365070,0.21772546,0.4882746,43.29967,11/5/1990,1950.0,12.61,0.15
Belgica,e,4.69636,99.19181,297.02858,2.2356426,0.29484957,0.1437317,171.40680,11/5/1990,1950.0,12.02,0.25
Belgrano,e,8.96117,314.34162,115.70023,3.0083329,0.18889273,0.0865720,43.35632,11/5/1990,1950.0,11.44,0.25
Belinskij,e,24.36549,38.31774,99.12184,3.1946137,0.17261421,0.1133955,121.11996,11/5/1990,1950.0,11.40,0.25
Belisana,e,1.89985,50.80135,209.66381,2.4610198,0.25528859,0.0439153,241.75048,11/5/1990,1950.0,9.41,0.25
Beljawskya,e,0.81749,37.74736,20.71737,3.1662305,0.17494046,0.1616062,313.92019,11/5/1990,1950.0,10.16,0.15
Bella,e,13.88717,275.45947,78.17847,2.5387904,0.24364853,0.1589672,55.52768,11/5/1990,1950.0,9.03,0.25
Bellatrix,f,5:25:8,6:21,1.63,2000
Bellerophon,e,2.03909,13.06792,45.89115,2.7474792,0.21642253,0.1798629,182.84431,11/5/1990,1950.0,12.20,0.25
Bellingshausen,e,3.43869,189.40584,258.09050,2.5304923,0.24484798,0.1206549,33.70120,11/5/1990,1950.0,13.50,0.25
Bellona,e,9.40784,143.99758,343.55823,2.7785074,0.21280741,0.1487084,219.41051,11/5/1990,1950.0,7.17,0.22
Belnika,e,1.49036,355.59320,116.39659,2.8497894,0.20487309,0.0247665,57.48728,11/5/1990,1950.0,11.90,0.25
Belopolskya,e,2.97840,153.32061,227.50676,3.4028289,0.15701600,0.0871131,243.55305,11/5/1990,1950.0,9.82,0.15
Beltrovata,e,5.25608,287.17481,42.02436,2.1061946,0.32244551,0.4128269,117.50669,11/5/1990,1950.0,15.60,0.25
Belyaev,e,2.58208,169.34762,61.07405,2.2477960,0.29246153,0.0936391,241.36034,11/5/1990,1950.0,13.60,0.25
Ben Mayer,e,1.97079,120.33260,223.03310,3.1608347,0.17538861,0.1957172,227.82150,11/5/1990,1950.0,12.31,0.15
Benda,e,5.80861,2.90755,65.58155,3.1538986,0.17596751,0.0843096,309.51470,11/5/1990,1950.0,10.03,0.15
Benetnasch,f,13:47:32,49:19,1.88,2000
Bengt,e,3.18655,18.65171,74.97182,2.3381337,0.27567670,0.1420129,75.09369,11/5/1990,1950.0,13.50,0.25
Benguella,e,1.47413,94.85702,185.12380,2.4050617,0.26424985,0.1312461,305.54937,11/5/1990,1950.0,11.81,0.25
Benjamina,e,7.58360,244.98505,302.21603,3.2025974,0.17196916,0.0992091,5.38387,11/5/1990,1950.0,9.35,0.15
Benkoela,e,25.45374,116.57516,97.18276,3.1966677,0.17244787,0.0452784,233.19222,11/5/1990,1950.0,9.13,0.40
Bennett,e,9.34365,260.16065,217.33545,3.0191146,0.18788178,0.0264386,195.51527,11/5/1990,1950.0,12.00,0.25
Beograd,e,5.27808,63.64150,229.00276,2.7181793,0.21993124,0.0423096,165.25839,11/5/1990,1950.0,11.00,0.25
Berbericia,e,18.23618,79.54161,305.55323,2.9296183,0.19655655,0.1659070,192.86458,11/5/1990,1950.0,7.68,0.34
Berendeya,e,3.07033,156.96936,203.76458,2.4226367,0.26137957,0.1941758,12.71747,11/5/1990,1950.0,14.40,0.25
Berenike,e,11.29539,132.74332,56.77234,3.0122651,0.18852298,0.0481617,184.25835,11/5/1990,1950.0,9.31,0.25
Berg,e,8.71769,161.16266,316.30814,2.5520133,0.24175735,0.1329656,149.20156,11/5/1990,1950.0,12.40,0.25
Bergholz,e,12.78109,278.34086,60.36346,2.6793435,0.22473023,0.2049578,114.08028,11/5/1990,1950.0,11.60,0.25
Berkeley,e,8.49367,145.76374,55.28857,2.8129987,0.20890545,0.0848882,41.60989,11/5/1990,1950.0,10.81,0.25
Berkhuijsen,e,11.99480,19.56045,154.94570,2.6002322,0.23506386,0.1167584,257.19317,11/5/1990,1950.0,12.90,0.25
Berna,e,12.55201,298.11465,99.06298,2.6575161,0.22750462,0.2052765,34.87656,11/5/1990,1950.0,11.80,0.25
Bernardina,e,9.33619,87.16993,30.08600,3.1223786,0.17863878,0.1695677,66.68195,11/5/1990,1950.0,9.67,0.15
Bernes,e,4.69729,351.26365,10.65902,2.4396051,0.25865732,0.2025381,60.92197,11/5/1990,1950.0,13.45,0.25
Bernheim,e,4.10817,104.95715,348.76907,2.4096435,0.26349651,0.1476840,80.62723,11/5/1990,1950.0,13.00,0.25
Bernoulli,e,8.55759,18.64568,63.54986,2.2460504,0.29280253,0.1801271,160.84103,11/5/1990,1950.0,12.70,0.25
Berolina,e,4.99293,8.66946,334.90921,2.2295433,0.29606033,0.2137356,124.68817,11/5/1990,1950.0,10.89,0.40
Berry,e,6.81617,94.59760,67.00034,2.2877357,0.28483628,0.1533148,55.59048,11/5/1990,1950.0,13.60,0.25
Bertha,e,21.08645,36.58022,152.35412,3.1852304,0.17337752,0.0930303,305.56458,11/5/1990,1950.0,7.09,0.15
Bertholda,e,6.69771,243.84436,206.68988,3.4162386,0.15609241,0.0473167,220.81411,11/5/1990,1950.0,8.35,0.04
